CCSDS_OMM_VERS = 2.0
CREATION_DATE  = 
ORIGINATOR     = 

OBJECT_NAME    = STARLINK-35441
OBJECT_ID      = 2025-223R
CENTER_NAME    = EARTH
REF_FRAME      = TEME
TIME_SYSTEM    = UTC
MEAN_ELEMENT_THEORY = SGP/SGP4

EPOCH          = 2025-10-31T02:47:20.914656
MEAN_MOTION    = 15.39602678
ECCENTRICITY   = .00013535
INCLINATION    = 53.1608
RA_OF_ASC_NODE = 178.4168
ARG_OF_PERICENTER = 92.5137
MEAN_ANOMALY   = 267.6022

EPHEMERIS_TYPE = 0
CLASSIFICATION_TYPE = U
NORAD_CAT_ID   = 65869
ELEMENT_SET_NO = 999
REV_AT_EPOCH   = 433
BSTAR          = .14620066E-3
MEAN_MOTION_DOT = .5449E-4
MEAN_MOTION_DDOT = 0

CCSDS_OMM_VERS = 2.0
CREATION_DATE  = 
ORIGINATOR     = 

OBJECT_NAME    = STARLINK-35433
OBJECT_ID      = 2025-223S
CENTER_NAME    = EARTH
REF_FRAME      = TEME
TIME_SYSTEM    = UTC
MEAN_ELEMENT_THEORY = SGP/SGP4

EPOCH          = 2025-10-31T06:00:02.000160
MEAN_MOTION    = 15.39596989
ECCENTRICITY   = .00012511
INCLINATION    = 53.1599
RA_OF_ASC_NODE = 177.6343
ARG_OF_PERICENTER = 97.4809
MEAN_ANOMALY   = 1.9561

EPHEMERIS_TYPE = 0
CLASSIFICATION_TYPE = U
NORAD_CAT_ID   = 65870
ELEMENT_SET_NO = 999
REV_AT_EPOCH   = 566
BSTAR          = .50966002E-3
MEAN_MOTION_DOT = .20025E-3
MEAN_MOTION_DDOT = 0

CCSDS_OMM_VERS = 2.0
CREATION_DATE  = 
ORIGINATOR     = 

OBJECT_NAME    = STARLINK-35465
OBJECT_ID      = 2025-223T
CENTER_NAME    = EARTH
REF_FRAME      = TEME
TIME_SYSTEM    = UTC
MEAN_ELEMENT_THEORY = SGP/SGP4

EPOCH          = 2025-10-30T23:27:01.352736
MEAN_MOTION    = 15.39630376
ECCENTRICITY   = .0001214
INCLINATION    = 53.1614
RA_OF_ASC_NODE = 178.9709
ARG_OF_PERICENTER = 80.4126
MEAN_ANOMALY   = 279.7016

EPHEMERIS_TYPE = 0
CLASSIFICATION_TYPE = U
NORAD_CAT_ID   = 65871
ELEMENT_SET_NO = 999
REV_AT_EPOCH   = 431
BSTAR          = .13697149E-2
MEAN_MOTION_DOT = .54801E-3
MEAN_MOTION_DDOT = 0

CCSDS_OMM_VERS = 2.0
CREATION_DATE  = 
ORIGINATOR     = 

OBJECT_NAME    = STARLINK-34108
OBJECT_ID      = 2025-223U
CENTER_NAME    = EARTH
REF_FRAME      = TEME
TIME_SYSTEM    = UTC
MEAN_ELEMENT_THEORY = SGP/SGP4

EPOCH          = 2025-10-31T06:00:02.000160
MEAN_MOTION    = 15.39594653
ECCENTRICITY   = .00009483
INCLINATION    = 53.1591
RA_OF_ASC_NODE = 177.5321
ARG_OF_PERICENTER = 101.1335
MEAN_ANOMALY   = 49.8267

EPHEMERIS_TYPE = 0
CLASSIFICATION_TYPE = U
NORAD_CAT_ID   = 65872
ELEMENT_SET_NO = 999
REV_AT_EPOCH   = 556
BSTAR          = .45781401E-3
MEAN_MOTION_DOT = .17941E-3
MEAN_MOTION_DDOT = 0

CCSDS_OMM_VERS = 2.0
CREATION_DATE  = 
ORIGINATOR     = 

OBJECT_NAME    = STARLINK-35423
OBJECT_ID      = 2025-223V
CENTER_NAME    = EARTH
REF_FRAME      = TEME
TIME_SYSTEM    = UTC
MEAN_ELEMENT_THEORY = SGP/SGP4

EPOCH          = 2025-10-31T06:00:02.000160
MEAN_MOTION    = 15.39593044
ECCENTRICITY   = .00012991
INCLINATION    = 53.1591
RA_OF_ASC_NODE = 177.4802
ARG_OF_PERICENTER = 102.1992
MEAN_ANOMALY   = 74.4592

EPHEMERIS_TYPE = 0
CLASSIFICATION_TYPE = U
NORAD_CAT_ID   = 65873
ELEMENT_SET_NO = 999
REV_AT_EPOCH   = 566
BSTAR          = .73558927E-3
MEAN_MOTION_DOT = .2911E-3
MEAN_MOTION_DDOT = 0

CCSDS_OMM_VERS = 2.0
CREATION_DATE  = 
ORIGINATOR     = 

OBJECT_NAME    = STARLINK-35425
OBJECT_ID      = 2025-223W
CENTER_NAME    = EARTH
REF_FRAME      = TEME
TIME_SYSTEM    = UTC
MEAN_ELEMENT_THEORY = SGP/SGP4

EPOCH          = 2025-10-31T06:00:02.000160
MEAN_MOTION    = 15.39603891
ECCENTRICITY   = .00011471
INCLINATION    = 53.1595
RA_OF_ASC_NODE = 177.5829
ARG_OF_PERICENTER = 72.0527
MEAN_ANOMALY   = 53.1251

EPHEMERIS_TYPE = 0
CLASSIFICATION_TYPE = U
NORAD_CAT_ID   = 65874
ELEMENT_SET_NO = 999
REV_AT_EPOCH   = 566
BSTAR          = .47445883E-3
MEAN_MOTION_DOT = .18615E-3
MEAN_MOTION_DDOT = 0

CCSDS_OMM_VERS = 2.0
CREATION_DATE  = 
ORIGINATOR     = 

OBJECT_NAME    = STARLINK-34688
OBJECT_ID      = 2025-223X
CENTER_NAME    = EARTH
REF_FRAME      = TEME
TIME_SYSTEM    = UTC
MEAN_ELEMENT_THEORY = SGP/SGP4

EPOCH          = 2025-10-31T06:00:02.000160
MEAN_MOTION    = 15.39579397
ECCENTRICITY   = .00011228
INCLINATION    = 53.1591
RA_OF_ASC_NODE = 177.4292
ARG_OF_PERICENTER = 85.1188
MEAN_ANOMALY   = 117.3533

EPHEMERIS_TYPE = 0
CLASSIFICATION_TYPE = U
NORAD_CAT_ID   = 65875
ELEMENT_SET_NO = 999
REV_AT_EPOCH   = 566
BSTAR          = .72442282E-3
MEAN_MOTION_DOT = .28647E-3
MEAN_MOTION_DDOT = 0

CCSDS_OMM_VERS = 2.0
CREATION_DATE  = 
ORIGINATOR     = 

OBJECT_NAME    = STARLINK-34438
OBJECT_ID      = 2025-223Y
CENTER_NAME    = EARTH
REF_FRAME      = TEME
TIME_SYSTEM    = UTC
MEAN_ELEMENT_THEORY = SGP/SGP4

EPOCH          = 2025-10-31T06:00:02.000160
MEAN_MOTION    = 15.46102993
ECCENTRICITY   = .00012683
INCLINATION    = 53.1593
RA_OF_ASC_NODE = 177.3605
ARG_OF_PERICENTER = 95.7366
MEAN_ANOMALY   = 141.5773

EPHEMERIS_TYPE = 0
CLASSIFICATION_TYPE = U
NORAD_CAT_ID   = 65876
ELEMENT_SET_NO = 999
REV_AT_EPOCH   = 566
BSTAR          = -.47375519E-1
MEAN_MOTION_DOT = -.2091478E-1
MEAN_MOTION_DDOT = 0

CCSDS_OMM_VERS = 2.0
CREATION_DATE  = 
ORIGINATOR     = 

OBJECT_NAME    = STARLINK-35462
OBJECT_ID      = 2025-223Z
CENTER_NAME    = EARTH
REF_FRAME      = TEME
TIME_SYSTEM    = UTC
MEAN_ELEMENT_THEORY = SGP/SGP4

EPOCH          = 2025-10-30T22:44:41.961696
MEAN_MOTION    = 15.49338959
ECCENTRICITY   = .00008966
INCLINATION    = 53.1601
RA_OF_ASC_NODE = 178.7857
ARG_OF_PERICENTER = 106.4983
MEAN_ANOMALY   = 253.6125

EPHEMERIS_TYPE = 0
CLASSIFICATION_TYPE = U
NORAD_CAT_ID   = 65877
ELEMENT_SET_NO = 999
REV_AT_EPOCH   = 431
BSTAR          = .14375156E-2
MEAN_MOTION_DOT = .80412E-3
MEAN_MOTION_DDOT = 0

CCSDS_OMM_VERS = 2.0
CREATION_DATE  = 
ORIGINATOR     = 

OBJECT_NAME    = STARLINK-35453
OBJECT_ID      = 2025-223AA
CENTER_NAME    = EARTH
REF_FRAME      = TEME
TIME_SYSTEM    = UTC
MEAN_ELEMENT_THEORY = SGP/SGP4

EPOCH          = 2025-10-31T06:00:02.000160
MEAN_MOTION    = 15.42399362
ECCENTRICITY   = .00010572
INCLINATION    = 53.1593
RA_OF_ASC_NODE = 177.3845
ARG_OF_PERICENTER = 69.0945
MEAN_ANOMALY   = 155.8123

EPHEMERIS_TYPE = 0
CLASSIFICATION_TYPE = U
NORAD_CAT_ID   = 65878
ELEMENT_SET_NO = 999
REV_AT_EPOCH   = 566
BSTAR          = -.43373379E-1
MEAN_MOTION_DOT = -.1696243E-1
MEAN_MOTION_DDOT = 0

CCSDS_OMM_VERS = 2.0
CREATION_DATE  = 
ORIGINATOR     = 

OBJECT_NAME    = STARLINK-35418
OBJECT_ID      = 2025-223AB
CENTER_NAME    = EARTH
REF_FRAME      = TEME
TIME_SYSTEM    = UTC
MEAN_ELEMENT_THEORY = SGP/SGP4

EPOCH          = 2025-10-30T22:44:12.318720
MEAN_MOTION    = 15.49341283
ECCENTRICITY   = .00011531
INCLINATION    = 53.1601
RA_OF_ASC_NODE = 178.7835
ARG_OF_PERICENTER = 72.7378
MEAN_ANOMALY   = 287.3757

EPHEMERIS_TYPE = 0
CLASSIFICATION_TYPE = U
NORAD_CAT_ID   = 65879
ELEMENT_SET_NO = 999
REV_AT_EPOCH   = 431
BSTAR          = .15016744E-2
MEAN_MOTION_DOT = .84068E-3
MEAN_MOTION_DDOT = 0

CCSDS_OMM_VERS = 2.0
CREATION_DATE  = 
ORIGINATOR     = 

OBJECT_NAME    = STARLINK-35445
OBJECT_ID      = 2025-223AC
CENTER_NAME    = EARTH
REF_FRAME      = TEME
TIME_SYSTEM    = UTC
MEAN_ELEMENT_THEORY = SGP/SGP4

EPOCH          = 2025-10-30T22:45:11.654784
MEAN_MOTION    = 15.49342374
ECCENTRICITY   = .00010523
INCLINATION    = 53.1600
RA_OF_ASC_NODE = 178.7881
ARG_OF_PERICENTER = 68.8169
MEAN_ANOMALY   = 291.2953

EPHEMERIS_TYPE = 0
CLASSIFICATION_TYPE = U
NORAD_CAT_ID   = 65880
ELEMENT_SET_NO = 999
REV_AT_EPOCH   = 431
BSTAR          = .14918346E-2
MEAN_MOTION_DOT = .83511E-3
MEAN_MOTION_DDOT = 0

CCSDS_OMM_VERS = 2.0
CREATION_DATE  = 
ORIGINATOR     = 

OBJECT_NAME    = STARLINK-35464
OBJECT_ID      = 2025-223AD
CENTER_NAME    = EARTH
REF_FRAME      = TEME
TIME_SYSTEM    = UTC
MEAN_ELEMENT_THEORY = SGP/SGP4

EPOCH          = 2025-10-30T22:43:42.703392
MEAN_MOTION    = 15.49372695
ECCENTRICITY   = .00014598
INCLINATION    = 53.1602
RA_OF_ASC_NODE = 178.7811
ARG_OF_PERICENTER = 116.1585
MEAN_ANOMALY   = 243.9574

EPHEMERIS_TYPE = 0
CLASSIFICATION_TYPE = U
NORAD_CAT_ID   = 65881
ELEMENT_SET_NO = 999
REV_AT_EPOCH   = 431
BSTAR          = .20608667E-2
MEAN_MOTION_DOT = .116148E-2
MEAN_MOTION_DDOT = 0

CCSDS_OMM_VERS = 2.0
CREATION_DATE  = 
ORIGINATOR     = 

OBJECT_NAME    = STARLINK-35270
OBJECT_ID      = 2025-224A
CENTER_NAME    = EARTH
REF_FRAME      = TEME
TIME_SYSTEM    = UTC
MEAN_ELEMENT_THEORY = SGP/SGP4

EPOCH          = 2025-10-31T06:00:02.000160
MEAN_MOTION    = 15.49295836
ECCENTRICITY   = .000126
INCLINATION    = 53.1587
RA_OF_ASC_NODE = 254.6449
ARG_OF_PERICENTER = 79.8234
MEAN_ANOMALY   = 61.9557

EPHEMERIS_TYPE = 0
CLASSIFICATION_TYPE = U
NORAD_CAT_ID   = 65882
ELEMENT_SET_NO = 999
REV_AT_EPOCH   = 502
BSTAR          = -.54028615E-3
MEAN_MOTION_DOT = -.30366E-3
MEAN_MOTION_DDOT = 0

CCSDS_OMM_VERS = 2.0
CREATION_DATE  = 
ORIGINATOR     = 

OBJECT_NAME    = STARLINK-35367
OBJECT_ID      = 2025-224B
CENTER_NAME    = EARTH
REF_FRAME      = TEME
TIME_SYSTEM    = UTC
MEAN_ELEMENT_THEORY = SGP/SGP4

EPOCH          = 2025-10-31T06:00:02.000160
MEAN_MOTION    = 15.49313567
ECCENTRICITY   = .00013464
INCLINATION    = 53.1587
RA_OF_ASC_NODE = 254.6370
ARG_OF_PERICENTER = 80.1104
MEAN_ANOMALY   = 65.5081

EPHEMERIS_TYPE = 0
CLASSIFICATION_TYPE = U
NORAD_CAT_ID   = 65883
ELEMENT_SET_NO = 999
REV_AT_EPOCH   = 502
BSTAR          = -.1211663E-2
MEAN_MOTION_DOT = -.67271E-3
MEAN_MOTION_DDOT = 0

